{
    "CCSDS_OMM_VERS": "3.0",
    "COMMENT": "GENERATED VIA SPACE-TRACK.ORG API",
    "CREATION_DATE": "2025-05-22T17:14:14",
    "ORIGINATOR": "18 SPCS",
    "OBJECT_NAME": "COSMOS 2547 (GLONASS)",
    "OBJECT_ID": "2020-075A",
    "CENTER_NAME": "EARTH",
    "REF_FRAME": "TEME",
    "TIME_SYSTEM": "UTC",
    "MEAN_ELEMENT_THEORY": "SGP4",
    "EPOCH": "2025-05-22T12:24:52.397568",
    "MEAN_MOTION": "2.13100310",
    "ECCENTRICITY": "0.00085270",
    "INCLINATION": "64.5950",
    "RA_OF_ASC_NODE": "205.5171",
    "ARG_OF_PERICENTER": "239.1329",
    "MEAN_ANOMALY": "120.8571",
    "EPHEMERIS_TYPE": "0",
    "CLASSIFICATION_TYPE": "U",
    "NORAD_CAT_ID": "46805",
    "ELEMENT_SET_NO": "999",
    "REV_AT_EPOCH": "3558",
    "BSTAR": "0.00000000000000",
    "MEAN_MOTION_DOT": "0.00000056",
    "MEAN_MOTION_DDOT": "0.0000000000000",
    "SEMIMAJOR_AXIS": "25508.159",
    "PERIOD": "675.738",
    "APOAPSIS": "19151.775",
    "PERIAPSIS": "19108.273",
    "OBJECT_TYPE": "PAYLOAD",
    "RCS_SIZE": "LARGE",
    "COUNTRY_CODE": "CIS",
    "LAUNCH_DATE": "2020-10-25",
    "SITE": "PKMTR",
    "DECAY_DATE": null,
    "FILE": "4736220",
    "GP_ID": "288146368",
    "TLE_LINE0": "0 COSMOS 2547 (GLONASS)",
    "TLE_LINE1": "1 46805U 20075A   25142.51727312  .00000056  00000-0  00000-0 0  9990",
    "TLE_LINE2": "2 46805  64.5950 205.5171 0008527 239.1329 120.8571  2.13100310 35582"
}